1 45742U 20038N   23214.60156994  .00005055  00000-0  35792-3 0  9991
2 45742  53.0532 181.7309 0001034  96.2126 263.8981 15.06408339174104
1 45742U 20038N   23215.13235293 -.00002310  00000-0 -13627-3 0  9996
2 45742  53.0543 179.3486 0001480 104.3286 255.7867 15.06388662174185
1 45742U 20038N   23216.12755540  .00011219  00000-0  77069-3 0  9994
2 45742  53.0540 174.8815 0001307  96.1312 263.9826 15.06407633174337
1 45742U 20038N   23217.12276630  .00009773  00000-0  67410-3 0  9994
2 45742  53.0528 170.4131 0001364  93.9600 266.1545 15.06398571174483
1 45742U 20038N   23218.11795895  .00023613  00000-0  15972-2 0  9997
2 45742  53.0525 165.9449 0001412  92.3877 267.7274 15.06437801174637
1 45742U 20038N   23218.58239422 -.00002330  00000-0 -13756-3 0  9991
2 45742  53.0529 163.8602 0002662  79.6570 280.4718 15.06399254174707
1 45742U 20038N   23219.11317572 -.00004210  00000-0 -26406-3 0  9999
2 45742  53.0527 161.4770 0001597  78.7743 281.3425 15.06375322174786
1 45742U 20038N   23220.10839084  .00026183  00000-0  17698-2 0  9990
2 45742  53.0527 157.0105 0001606  74.3761 285.7405 15.06407600174930
1 45742U 20038N   23220.83820612  .00021373  00000-0  14490-2 0  9990
2 45742  53.0527 153.7336 0001200  77.7449 282.3675 15.06410185175046
1 45742U 20038N   23221.50167216  .00023302  00000-0  15777-2 0  9992
2 45742  53.0528 150.7554 0002274  75.3475 284.7765 15.06408128175142
1 45742U 20038N   23222.23147217  .00011498  00000-0  78889-3 0  9999
2 45742  53.0522 147.4795 0001607  84.3543 275.7630 15.06430944175255
1 45742U 20038N   23222.82859784  .00003805  00000-0  27422-3 0  9993
2 45742  53.0490 144.8005 0002363  78.0398 282.0856 15.06403627175341
1 45742U 20038N   23223.16033689 -.00004395  00000-0 -27641-3 0  9999
2 45742  53.0502 143.3109 0001517  83.6652 276.4509 15.06384974175399
1 45742U 20038N   23223.75745484  .00016507  00000-0  11242-2 0  9992
2 45742  53.0529 140.6311 0000874  91.7964 268.3125 15.06409903175488
1 45742U 20038N   23224.08918250  .00022948  00000-0  15531-2 0  9993
2 45742  53.0527 139.1417 0001005  90.1875 269.9229 15.06433049175533
1 45742U 20038N   23224.75265841  .00013909  00000-0  95086-3 0  9999
2 45742  53.0531 136.1636 0001404  83.2092 276.9056 15.06397972175636
1 45742U 20038N   23225.15074302  .00013524  00000-0  92543-3 0  9992
2 45742  53.0547 134.3757 0000671 106.3166 253.7897 15.06384959175694
1 45742U 20038N   23226.14594230  .00021053  00000-0  14270-2 0  9995
2 45742  53.0536 129.9069 0001132  70.6912 289.4200 15.06427053175847
1 45742U 20038N   23227.07480546  .00017083  00000-0  11631-2 0  9998
2 45742  53.0547 125.7378 0000929  85.7133 274.3962 15.06395634175983
1 45742U 20038N   23228.13634053  .00018623  00000-0  12646-2 0  9998
2 45742  53.0542 120.9717 0000945  89.8569 270.2528 15.06436656176140
1 45742U 20038N   23228.66712272  .00004277  00000-0  30580-3 0  9994
2 45742  53.0526 118.5876 0002095  76.7113 283.4109 15.06408055176221
1 45742U 20038N   23230.12675743  .00009801  00000-0  67581-3 0  9998
2 45742  53.0537 112.0368 0001293  93.4564 266.6572 15.06407793176442
1 45742U 20038N   23231.05562927  .00007240  00000-0  50466-3 0  9999
2 45742  53.0528 107.8632 0001577 105.7301 254.3862 15.06385682176582
1 45742U 20038N   23232.05082366  .00016697  00000-0  11364-2 0  9993
2 45742  53.0543 103.3943 0001406 111.2143 248.8997 15.06425284176739
1 45742U 20038N   23232.78064423  .00018870  00000-0  12822-2 0  9992
2 45742  53.0527 100.1220 0001427  76.1867 283.9281 15.06403657176847
1 45742U 20038N   23233.04603176  .00008488  00000-0  58805-3 0  9992
2 45742  53.0539  98.9301 0001396  76.8585 283.2560 15.06398419176889
1 45742U 20038N   23233.84218342  .00012853  00000-0  87960-3 0  9992
2 45742  53.0537  95.3565 0001350  76.9809 283.1330 15.06424720177004
1 45742U 20038N   23234.57200307  .00005199  00000-0  36755-3 0  9996
2 45742  53.0533  92.0797 0003459  65.6278 294.5072 15.06410120177118
1 45742U 20038N   23235.03642893  .00000061  00000-0  23016-4 0  9998
2 45742  53.0537  89.9937 0001125 103.2794 256.8321 15.06399118177181
1 45742U 20038N   23236.03162931  .00013825  00000-0  94472-3 0  9994
2 45742  53.0539  85.5266 0001406  83.9178 276.1971 15.06419624176216
1 45742U 20038N   23236.96049118  .00010169  00000-0  70059-3 0  9990
2 45742  53.0544  81.3502 0001376 104.5681 255.5460 15.06401117176351
1 45742U 20038N   23236.96049118  .00010169  00000-0  70059-3 0  9990
2 45742  53.0544  81.3502 0001376 104.5681 255.5460 15.06401117177475
1 45742U 20038N   23237.82299483  .00011804  00000-0  80960-3 0  9997
2 45742  53.0547  77.4783 0001391  94.8956 265.2192 15.06417580176489
1 45742U 20038N   23238.55281286  .00002918  00000-0  21471-3 0  9998
2 45742  53.0540  74.2092 0001204  97.9482 262.1644 15.06401947176591
1 45742U 20038N   23238.75185417  .00003544  00000-0  25671-3 0  9991
2 45742  53.0542  73.3147 0001207  92.1529 267.9598 15.06399128177742
1 45742U 20038N   23238.81820170  .00002585  00000-0  19235-3 0  9993
2 45742  53.0540  73.0170 0001187  90.7433 269.3692 15.06396331176639
1 45742U 20038N   23239.81339998  .00014189  00000-0  96900-3 0  9994
2 45742  53.0543  68.5498 0001155  93.3743 266.7378 15.06419256176782
1 45742U 20038N   23239.81339998  .00014189  00000-0  96900-3 0  9994
2 45742  53.0543  68.5498 0001155  93.3743 266.7378 15.06419256177907
1 45742U 20038N   23240.47687212  .00002658  00000-0  19729-3 0  9995
2 45742  53.0543  65.5712 0001213  88.4826 271.6302 15.06400722178007
1 45742U 20038N   23240.80861086 -.00001611  00000-0 -89311-4 0  9990
2 45742  53.0538  64.0817 0001255  81.4526 278.6605 15.06387432176932
1 45742U 20038N   23240.80861086 -.00001611  00000-0 -89311-4 0  9990
2 45742  53.0538  64.0817 0001255  81.4526 278.6605 15.06387432178057
1 45742U 20038N   23241.73746770  .00004276  00000-0  30578-3 0  9993
2 45742  53.0535  59.9107 0001359  82.0331 278.0813 15.06401171178192
1 45742U 20038N   23241.80381403  .00004926  00000-0  34930-3 0  9997
2 45742  53.0538  59.6133 0001345  81.3626 278.7515 15.06403018177080
1 45742U 20038N   23242.66633013  .00000703  00000-0  66122-4 0  9997
2 45742  53.0557  55.7433 0001595  91.4903 268.6268 15.06389688177212
1 45742U 20038N   23242.66633013  .00000703  00000-0  66122-4 0  9997
2 45742  53.0557  55.7433 0001595  91.4903 268.6268 15.06389688178336
1 45742U 20038N   23243.46248639  .00002745  00000-0  20306-3 0  9993
2 45742  53.0547  52.1677 0001362  66.0604 294.0528 15.06406173178458
1 45742U 20038N   23243.86056025  .00004436  00000-0  31636-3 0  9990
2 45742  53.0542  50.3839 0001585  55.3708 304.7430 15.06414742177390
1 45742U 20038N   23243.86056025  .00004436  00000-0  31636-3 0  9990
2 45742  53.0542  50.3839 0001585  55.3708 304.7430 15.06414742178515
1 45742U 20038N   23244.45769065  .00004177  00000-0  29915-3 0  9990
2 45742  53.0520  47.7015 0001327  80.6026 279.5113 15.06395694177481
1 45742U 20038N   23244.45769065  .00004177  00000-0  29915-3 0  9990
2 45742  53.0520  47.7015 0001327  80.6026 279.5113 15.06395694178606
1 45742U 20038N   23244.85576929 -.00000214  00000-0  45195-5 0  9998
2 45742  53.0543  45.9109 0001620  96.2862 263.8311 15.06397257177547
1 45742U 20038N   23245.45288270  .00004247  00000-0  30369-3 0  9998
2 45742  53.0547  43.2313 0001427  90.4377 269.6775 15.06415874177635
1 45742U 20038N   23245.45288270  .00004247  00000-0  30369-3 0  9998
2 45742  53.0547  43.2313 0001427  90.4377 269.6775 15.06415874178759
1 45742U 20038N   23245.58558676  .00020723  00000-0  14058-2 0  9995
2 45742  53.0538  42.6362 0002055  92.5420 267.5804 15.06404687178778
1 45742U 20038N   23245.85095613  .00017932  00000-0  12184-2 0  9998
2 45742  53.0538  41.4439 0001418  93.7488 266.3663 15.06439077177690
1 45742U 20038N   23245.85095613  .00017932  00000-0  12184-2 0  9998
2 45742  53.0538  41.4439 0001418  93.7488 266.3663 15.06439077178815
1 45742U 20038N   23246.44808358  .00000546  00000-0  55565-4 0  9997
2 45742  53.0545  38.7638 0001359  95.8771 264.2373 15.06403770177786
1 45742U 20038N   23246.44808358  .00000546  00000-0  55565-4 0  9997
2 45742  53.0545  38.7638 0001359  95.8771 264.2373 15.06403770178901
1 45742U 20038N   23247.11155911  .00009782  00000-0  67481-3 0  9992
2 45742  53.0559  35.7846 0001023  88.7695 271.3412 15.06393304179004
1 45742U 20038N   23247.44329685  .00002451  00000-0  18342-3 0  9997
2 45742  53.0553  34.2967 0001490  97.9446 262.1712 15.06389264177931
1 45742U 20038N   23247.84137815  .00002928  00000-0  21543-3 0  9999
2 45742  53.0550  32.5100 0001468  96.9520 263.1636 15.06394372179119
1 45742U 20038N   23248.43851024  .00001197  00000-0  99260-4 0  9999
2 45742  53.0558  29.8299 0001437  98.3432 261.7720 15.06382684178085
1 45742U 20038N   23248.43851024  .00001197  00000-0  99260-4 0  9999
2 45742  53.0558  29.8299 0001437  98.3432 261.7720 15.06382684179200
1 45742U 20038N   23249.36735870  .00004633  00000-0  32965-3 0  9998
2 45742  53.0565  25.6597 0001697  97.9702 262.1480 15.06405779179340
1 45742U 20038N   23250.36255977  .00004093  00000-0  29347-3 0  9995
2 45742  53.0557  21.1905 0001262 104.9279 255.1849 15.06406390178374
1 45742U 20038N   23250.36255977  .00004093  00000-0  29347-3 0  9995
2 45742  53.0557  21.1905 0001262 104.9279 255.1849 15.06406390179498
1 45742U 20038N   23250.76064161  .00000200  00000-0  32335-4 0  9990
2 45742  53.0558  19.4023 0001431 113.0840 247.0300 15.06402081178431
1 45742U 20038N   23251.09237549  .00000718  00000-0  67073-4 0  9990
2 45742  53.0562  17.9128 0001237 106.9072 253.2053 15.06402713179603
1 45742U 20038N   23251.55679645  .00003601  00000-0  26040-3 0  9990
2 45742  53.0578  15.8338 0001180  40.1239 319.9837 15.06414039178558
1 45742U 20038N   23251.75582433  .00002338  00000-0  17565-3 0  9998
2 45742  53.0565  14.9354 0001265  94.8673 265.2460 15.06429727179707
1 45742U 20038N   23251.82215514 -.00004654  00000-0 -29332-3 0  9999
2 45742  53.0564  14.6379 0001202  96.7703 263.3423 15.06450298178597
